start=new Date('2022-12-02T00:00:00.000Z').valueOf();
sats=[{"GP_ID":"219302477","CENTER_NAME":"EARTH","ECCENTRICITY":"0.00015140","LAUNCH_DATE":"2020-03-18","RA_OF_ASC_NODE":"106.4685","APOAPSIS":"548.264","OBJECT_ID":"2020-019AP","OBJECT_TYPE":"PAYLOAD","MEAN_ANOMALY":"281.3705","MEAN_MOTION":"15.06399453","RCS_SIZE":"LARGE","TLE_LINE1":"1 45397U 20019AP  22335.73705539  .00000124  00000-0  27209-4 0  9995","ELEMENT_SET_NO":"999","MEAN_MOTION_DDOT":"0.0000000000000","COUNTRY_CODE":"US","SEMIMAJOR_AXIS":"6925.350","MEAN_ELEMENT_THEORY":"SGP4","INCLINATION":"53.0553","CLASSIFICATION_TYPE":"U","PERIOD":"95.592","FILE":"3678231","REV_AT_EPOCH":"14987","OBJECT_NAME":"STARLINK-1307","SITE":"AFETR","ARG_OF_PERICENTER":"78.7455","PERIAPSIS":"546.167","TLE_LINE2":"2 45397  53.0553 106.4685 0001514  78.7455 281.3705 15.06399453149878","NORAD_CAT_ID":"45397","EPOCH":"2022-12-01T17:41:21.585696","MEAN_MOTION_DOT":"0.00000124","EPHEMERIS_TYPE":"0","DECAY_DATE":null,"REF_FRAME":"TEME","TIME_SYSTEM":"UTC","BSTAR":"0.00002720900000"},{"SITE":"AFETR","ARG_OF_PERICENTER":"83.0291","PERIAPSIS":"546.180","TLE_LINE2":"2 45398  53.0565 106.8247 0001497  83.0291 277.0868 15.06398926149794","NORAD_CAT_ID":"45398","EPOCH":"2022-12-01T15:55:12.353088","INCLINATION":"53.0565","CLASSIFICATION_TYPE":"U","FILE":"3678231","OBJECT_NAME":"STARLINK-1312","PERIOD":"95.592","REV_AT_EPOCH":"14979","BSTAR":"0.00004434400000","MEAN_MOTION_DOT":"0.00000379","DECAY_DATE":null,"EPHEMERIS_TYPE":"0","REF_FRAME":"TEME","TIME_SYSTEM":"UTC","OBJECT_ID":"2020-019AQ","OBJECT_TYPE":"PAYLOAD","MEAN_ANOMALY":"277.0868","MEAN_MOTION":"15.06398926","GP_ID":"219301733","CENTER_NAME":"EARTH","ECCENTRICITY":"0.00014970","LAUNCH_DATE":"2020-03-18","APOAPSIS":"548.254","RA_OF_ASC_NODE":"106.8247","SEMIMAJOR_AXIS":"6925.352","MEAN_ELEMENT_THEORY":"SGP4","RCS_SIZE":"LARGE","TLE_LINE1":"1 45398U 20019AQ  22335.66333742  .00000379  00000-0  44344-4 0  9992","ELEMENT_SET_NO":"999","MEAN_MOTION_DDOT":"0.0000000000000","COUNTRY_CODE":"US"},{"GP_ID":"219301980","ECCENTRICITY":"0.00015500","CENTER_NAME":"EARTH","APOAPSIS":"548.302","RA_OF_ASC_NODE":"96.9113","LAUNCH_DATE":"2020-03-18","OBJECT_TYPE":"PAYLOAD","OBJECT_ID":"2020-019AR","MEAN_ANOMALY":"285.3298","MEAN_MOTION":"15.06395060","RCS_SIZE":"LARGE","TLE_LINE1":"1 45399U 20019AR  22335.63846103  .00000516  00000-0  53537-4 0  9997","COUNTRY_CODE":"US","MEAN_MOTION_DDOT":"0.0000000000000","ELEMENT_SET_NO":"999","SEMIMAJOR_AXIS":"6925.364","MEAN_ELEMENT_THEORY":"SGP4","INCLINATION":"53.0559","PERIOD":"95.592","FILE":"3678231","REV_AT_EPOCH":"14998","OBJECT_NAME":"STARLINK-1255","CLASSIFICATION_TYPE":"U","SITE":"AFETR","PERIAPSIS":"546.155","ARG_OF_PERICENTER":"74.7863","TLE_LINE2":"2 45399  53.0559  96.9113 0001550  74.7863 285.3298 15.06395060149987","NORAD_CAT_ID":"45399","EPOCH":"2022-12-01T15:19:23.032992","MEAN_MOTION_DOT":"0.00000516","EPHEMERIS_TYPE":"0","DECAY_DATE":null,"TIME_SYSTEM":"UTC","REF_FRAME":"TEME","BSTAR":"0.00005353700000"},{"TIME_SYSTEM":"UTC","REF_FRAME":"TEME","EPHEMERIS_TYPE":"0","DECAY_DATE":null,"MEAN_MOTION_DOT":"-0.00000707","BSTAR":"-0.00002854300000","REV_AT_EPOCH":"14992","FILE":"3678231","PERIOD":"95.592","OBJECT_NAME":"STARLINK-1213","CLASSIFICATION_TYPE":"U","INCLINATION":"53.0560","NORAD_CAT_ID":"45400","EPOCH":"2022-12-01T17:16:09.303168","TLE_LINE2":"2 45400  53.0560  96.5627 0001827  83.2875 276.8322 15.06395187149920","ARG_OF_PERICENTER":"83.2875","PERIAPSIS":"545.963","SITE":"AFETR","COUNTRY_CODE":"US","MEAN_MOTION_DDOT":"0.0000000000000","ELEMENT_SET_NO":"999","TLE_LINE1":"1 45400U 20019AS  22335.71955212 -.00000707  00000-0 -28543-4 0  9994","RCS_SIZE":"LARGE","MEAN_ELEMENT_THEORY":"SGP4","SEMIMAJOR_AXIS":"6925.363","RA_OF_ASC_NODE":"96.5627","APOAPSIS":"548.494","LAUNCH_DATE":"2020-03-18","ECCENTRICITY":"0.00018270","CENTER_NAME":"EARTH","GP_ID":"219302731","MEAN_ANOMALY":"276.8322","MEAN_MOTION":"15.06395187","OBJECT_TYPE":"PAYLOAD","OBJECT_ID":"2020-019AS"},{"OBJECT_TYPE":"PAYLOAD","OBJECT_ID":"2020-019AT","MEAN_MOTION":"15.06399790","MEAN_ANOMALY":"296.9558","GP_ID":"219302977","APOAPSIS":"548.139","RA_OF_ASC_NODE":"96.8879","LAUNCH_DATE":"2020-03-18","CENTER_NAME":"EARTH","ECCENTRICITY":"0.00013350","SEMIMAJOR_AXIS":"6925.349","MEAN_ELEMENT_THEORY":"SGP4","TLE_LINE1":"1 45401U 20019AT  22335.64951464  .00000902  00000-0  79468-4 0  9999","RCS_SIZE":"LARGE","COUNTRY_CODE":"US","MEAN_MOTION_DDOT":"0.0000000000000","ELEMENT_SET_NO":"999","PERIAPSIS":"546.290","ARG_OF_PERICENTER":"63.1568","SITE":"AFETR","NORAD_CAT_ID":"45401","EPOCH":"2022-12-01T15:35:18.064896","TLE_LINE2":"2 45401  53.0567  96.8879 0001335  63.1568 296.9558 15.06399790149984","INCLINATION":"53.0567","FILE":"3678231","PERIOD":"95.592","REV_AT_EPOCH":"14998","OBJECT_NAME":"STARLINK-1256","CLASSIFICATION_TYPE":"U","BSTAR":"0.00007946800000","DECAY_DATE":null,"EPHEMERIS_TYPE":"0","MEAN_MOTION_DOT":"0.00000902","TIME_SYSTEM":"UTC","REF_FRAME":"TEME"},{"TLE_LINE1":"1 45402U 20019AU  22335.64489072 -.00000299  00000-0 -11814-5 0  9994","RCS_SIZE":"LARGE","MEAN_MOTION_DDOT":"0.0000000000000","COUNTRY_CODE":"US","ELEMENT_SET_NO":"999","SEMIMAJOR_AXIS":"6925.369","MEAN_ELEMENT_THEORY":"SGP4","GP_ID":"219301235","RA_OF_ASC_NODE":"96.8901","APOAPSIS":"548.025","LAUNCH_DATE":"2020-03-18","ECCENTRICITY":"0.00011420","CENTER_NAME":"EARTH","OBJECT_TYPE":"PAYLOAD","OBJECT_ID":"2020-019AU","MEAN_MOTION":"15.06393278","MEAN_ANOMALY":"300.7544","DECAY_DATE":null,"EPHEMERIS_TYPE":"0","MEAN_MOTION_DOT":"-0.00000299","TIME_SYSTEM":"UTC","REF_FRAME":"TEME","BSTAR":"-0.00000118140000","INCLINATION":"53.0562","REV_AT_EPOCH":"14999","FILE":"3678231","PERIOD":"95.593","OBJECT_NAME":"STARLINK-1257","CLASSIFICATION_TYPE":"U","PERIAPSIS":"546.443","ARG_OF_PERICENTER":"59.3558","SITE":"AFETR","NORAD_CAT_ID":"45402","EPOCH":"2022-12-01T15:28:38.558208","TLE_LINE2":"2 45402  53.0562  96.8901 0001142  59.3558 300.7544 15.06393278149993"},{"RA_OF_ASC_NODE":"98.2992","APOAPSIS":"548.195","LAUNCH_DATE":"2020-03-18","CENTER_NAME":"EARTH","ECCENTRICITY":"0.00014170","GP_ID":"219263936","MEAN_ANOMALY":"288.8717","MEAN_MOTION":"15.06399862","OBJECT_TYPE":"PAYLOAD","OBJECT_ID":"2020-019AV","MEAN_MOTION_DDOT":"0.0000000000000","COUNTRY_CODE":"US","ELEMENT_SET_NO":"999","TLE_LINE1":"1 45403U 20019AV  22335.32883705  .00000777  00000-0  71063-4 0  9991","RCS_SIZE":"LARGE","MEAN_ELEMENT_THEORY":"SGP4","SEMIMAJOR_AXIS":"6925.349","FILE":"3677495","PERIOD":"95.592","REV_AT_EPOCH":"14993","OBJECT_NAME":"STARLINK-1259","CLASSIFICATION_TYPE":"U","INCLINATION":"53.0558","NORAD_CAT_ID":"45403","EPOCH":"2022-12-01T07:53:31.521120","TLE_LINE2":"2 45403  53.0558  98.2992 0001417  71.2426 288.8717 15.06399862149934","PERIAPSIS":"546.233","ARG_OF_PERICENTER":"71.2426","SITE":"AFETR","TIME_SYSTEM":"UTC","REF_FRAME":"TEME","DECAY_DATE":null,"EPHEMERIS_TYPE":"0","MEAN_MOTION_DOT":"0.00000777","BSTAR":"0.00007106300000"},{"GP_ID":"219279109","CENTER_NAME":"EARTH","ECCENTRICITY":"0.00019550","LAUNCH_DATE":"2020-03-18","RA_OF_ASC_NODE":"97.0825","APOAPSIS":"548.559","OBJECT_ID":"2020-019AW","OBJECT_TYPE":"PAYLOAD","MEAN_ANOMALY":"299.9207","MEAN_MOTION":"15.06402622","RCS_SIZE":"LARGE","TLE_LINE1":"1 45404U 20019AW  22335.60528684  .00000604  00000-0  59441-4 0  9990","ELEMENT_SET_NO":"999","MEAN_MOTION_DDOT":"0.0000000000000","COUNTRY_CODE":"US","SEMIMAJOR_AXIS":"6925.341","MEAN_ELEMENT_THEORY":"SGP4","INCLINATION":"53.0564","CLASSIFICATION_TYPE":"U","PERIOD":"95.592","FILE":"3677874","OBJECT_NAME":"STARLINK-1260","REV_AT_EPOCH":"14988","SITE":"AFETR","ARG_OF_PERICENTER":"60.1976","PERIAPSIS":"545.852","TLE_LINE2":"2 45404  53.0564  97.0825 0001955  60.1976 299.9207 15.06402622149888","NORAD_CAT_ID":"45404","EPOCH":"2022-12-01T14:31:36.782976","MEAN_MOTION_DOT":"0.00000604","EPHEMERIS_TYPE":"0","DECAY_DATE":null,"REF_FRAME":"TEME","TIME_SYSTEM":"UTC","BSTAR":"0.00005944100000"},{"SEMIMAJOR_AXIS":"6925.350","MEAN_ELEMENT_THEORY":"SGP4","TLE_LINE1":"1 45405U 20019AX  22335.72323469 -.00000438  00000-0 -10478-4 0  9992","RCS_SIZE":"LARGE","ELEMENT_SET_NO":"999","MEAN_MOTION_DDOT":"0.0000000000000","COUNTRY_CODE":"US","OBJECT_ID":"2020-019AX","OBJECT_TYPE":"PAYLOAD","MEAN_ANOMALY":"296.7016","MEAN_MOTION":"15.06399529","GP_ID":"219302478","LAUNCH_DATE":"2020-03-18","RA_OF_ASC_NODE":"96.5559","APOAPSIS":"548.365","CENTER_NAME":"EARTH","ECCENTRICITY":"0.00016600","BSTAR":"-0.00001047800000","EPHEMERIS_TYPE":"0","DECAY_DATE":null,"MEAN_MOTION_DOT":"-0.00000438","REF_FRAME":"TEME","TIME_SYSTEM":"UTC","ARG_OF_PERICENTER":"63.4143","PERIAPSIS":"546.065","SITE":"AFETR","NORAD_CAT_ID":"45405","EPOCH":"2022-12-01T17:21:27.477216","TLE_LINE2":"2 45405  53.0552  96.5559 0001660  63.4143 296.7016 15.06399529149906","INCLINATION":"53.0552","CLASSIFICATION_TYPE":"U","FILE":"3678231","PERIOD":"95.592","REV_AT_EPOCH":"14990","OBJECT_NAME":"STARLINK-1263"},{"MEAN_MOTION":"15.06397038","MEAN_ANOMALY":"292.1137","OBJECT_ID":"2020-019AY","OBJECT_TYPE":"PAYLOAD","ECCENTRICITY":"0.00014710","CENTER_NAME":"EARTH","LAUNCH_DATE":"2020-03-18","APOAPSIS":"548.241","RA_OF_ASC_NODE":"96.5020","GP_ID":"219301734","MEAN_ELEMENT_THEORY":"SGP4","SEMIMAJOR_AXIS":"6925.358","ELEMENT_SET_NO":"999","MEAN_MOTION_DDOT":"0.0000000000000","COUNTRY_CODE":"US","RCS_SIZE":"LARGE","TLE_LINE1":"1 45406U 20019AY  22335.73060642 -.00000393  00000-0 -75018-5 0  9997","TLE_LINE2":"2 45406  53.0557  96.5020 0001471  68.0009 292.1137 15.06397038149904","NORAD_CAT_ID":"45406","EPOCH":"2022-12-01T17:32:04.394688","SITE":"AFETR","PERIAPSIS":"546.204","ARG_OF_PERICENTER":"68.0009","CLASSIFICATION_TYPE":"U","PERIOD":"95.592","FILE":"3678231","REV_AT_EPOCH":"14990","OBJECT_NAME":"STARLINK-1265","INCLINATION":"53.0557","BSTAR":"-0.00000750180000","REF_FRAME":"TEME","TIME_SYSTEM":"UTC","MEAN_MOTION_DOT":"-0.00000393","DECAY_DATE":null,"EPHEMERIS_TYPE":"0"}];
